{
  "type": "FeatureCollection",
  "features": [
    {
      "type": "Feature",
      "properties": {
        "norad_id": 37487,
        "name": "COSMOS 2251 DEB",
        "group": "cosmos-2251-debris",
        "lat": 60.8238217993122,
        "lon": -36.284200172834986,
        "alt_km": 622.2271628969938,
        "timestamp": "2025-12-21T09:37:23.052645+00:00",
        "meta_object_name": "COSMOS 2251 DEB",
        "meta_object_id": "1993-036BLQ",
        "meta_epoch": "2025-12-12T06:17:24.389376",
        "meta_mean_motion": 14.80982589,
        "meta_eccentricity": 0.00255931,
        "meta_inclination": 73.9026,
        "meta_ra_of_asc_node": 193.0379,
        "meta_arg_of_pericenter": 31.2136,
        "meta_mean_anomaly": 329.0553,
        "meta_ephemeris_type": 0,
        "meta_classification_type": "U",
        "meta_norad_cat_id": 37487,
        "meta_element_set_no": 999,
        "meta_rev_at_epoch": 81238,
        "meta_bstar": 0.0042593386,
        "meta_mean_motion_dot": 0.00033302,
        "meta_mean_motion_ddot": 0,
        "tle_line1": "1 37487U 93036BLQ 25346.26208784  .00033302  00000+0  42593-2 0  9992",
        "tle_line2": "2 37487  73.9026 193.0379 0025593  31.2136 329.0553 14.80982589812383"
      },
      "geometry": {
        "type": "Point",
        "coordinates": [
          -36.284200172834986,
          60.8238217993122
        ]
      }
    },
    {
      "type": "Feature",
      "properties": {
        "norad_id": 37491,
        "name": "COSMOS 2251 DEB",
        "group": "cosmos-2251-debris",
        "lat": 10.909672778534436,
        "lon": 76.38225875846877,
        "alt_km": 944.0484607149947,
        "timestamp": "2025-12-21T09:37:23.052654+00:00",
        "meta_object_name": "COSMOS 2251 DEB",
        "meta_object_id": "1993-036BLU",
        "meta_epoch": "2025-12-18T10:56:34.756512",
        "meta_mean_motion": 13.75306466,
        "meta_eccentricity": 0.03168182,
        "meta_inclination": 73.9061,
        "meta_ra_of_asc_node": 264.5073,
        "meta_arg_of_pericenter": 256.5569,
        "meta_mean_anomaly": 100.0063,
        "meta_ephemeris_type": 0,
        "meta_classification_type": "U",
        "meta_norad_cat_id": 37491,
        "meta_element_set_no": 999,
        "meta_rev_at_epoch": 55825,
        "meta_bstar": 0.00075469167,
        "meta_mean_motion_dot": 1.019e-05,
        "meta_mean_motion_ddot": 0,
        "tle_line1": "1 37491U 93036BLU 25352.45595783  .00001019  00000+0  75469-3 0  9992",
        "tle_line2": "2 37491  73.9061 264.5073 0316818 256.5569 100.0063 13.75306466558250"
      },
      "geometry": {
        "type": "Point",
        "coordinates": [
          76.38225875846877,
          10.909672778534436
        ]
      }
    },
    {
      "type": "Feature",
      "properties": {
        "norad_id": 37498,
        "name": "COSMOS 2251 DEB",
        "group": "cosmos-2251-debris",
        "lat": 4.384576544358541,
        "lon": -13.761126444611678,
        "alt_km": 706.9687509279383,
        "timestamp": "2025-12-21T09:37:23.052665+00:00",
        "meta_object_name": "COSMOS 2251 DEB",
        "meta_object_id": "1993-036BMB",
        "meta_epoch": "2025-12-17T05:47:45.632832",
        "meta_mean_motion": 14.54797097,
        "meta_eccentricity": 0.00121661,
        "meta_inclination": 74.035,
        "meta_ra_of_asc_node": 175.365,
        "meta_arg_of_pericenter": 238.5243,
        "meta_mean_anomaly": 121.4732,
        "meta_ephemeris_type": 0,
        "meta_classification_type": "U",
        "meta_norad_cat_id": 37498,
        "meta_element_set_no": 999,
        "meta_rev_at_epoch": 65420,
        "meta_bstar": 0.00050498457,
        "meta_mean_motion_dot": 2.139e-05,
        "meta_mean_motion_ddot": 0,
        "tle_line1": "1 37498U 93036BMB 25351.24150038  .00002139  00000+0  50498-3 0  9994",
        "tle_line2": "2 37498  74.0350 175.3650 0012166 238.5243 121.4732 14.54797097654202"
      },
      "geometry": {
        "type": "Point",
        "coordinates": [
          -13.761126444611678,
          4.384576544358541
        ]
      }
    },
    {
      "type": "Feature",
      "properties": {
        "norad_id": 37499,
        "name": "COSMOS 2251 DEB",
        "group": "cosmos-2251-debris",
        "lat": 63.70102638871175,
        "lon": 90.94445297445044,
        "alt_km": 771.0538429363087,
        "timestamp": "2025-12-21T09:37:23.052675+00:00",
        "meta_object_name": "COSMOS 2251 DEB",
        "meta_object_id": "1993-036BMC",
        "meta_epoch": "2025-12-20T14:41:45.178080",
        "meta_mean_motion": 14.34349303,
        "meta_eccentricity": 0.0027237,
        "meta_inclination": 74.0381,
        "meta_ra_of_asc_node": 307.7769,
        "meta_arg_of_pericenter": 21.4596,
        "meta_mean_anomaly": 338.7691,
        "meta_ephemeris_type": 0,
        "meta_classification_type": "U",
        "meta_norad_cat_id": 37499,
        "meta_element_set_no": 999,
        "meta_rev_at_epoch": 85262,
        "meta_bstar": 0.00012215,
        "meta_mean_motion_dot": 3.19e-06,
        "meta_mean_motion_ddot": 0,
        "tle_line1": "1 37499U 93036BMC 25354.61232845  .00000319  00000+0  12215-3 0  9999",
        "tle_line2": "2 37499  74.0381 307.7769 0027237  21.4596 338.7691 14.34349303852628"
      },
      "geometry": {
        "type": "Point",
        "coordinates": [
          90.94445297445044,
          63.70102638871175
        ]
      }
    },
    {
      "type": "Feature",
      "properties": {
        "norad_id": 37528,
        "name": "COSMOS 2251 DEB",
        "group": "cosmos-2251-debris",
        "lat": 48.131783520785916,
        "lon": 124.48415169885531,
        "alt_km": 733.1070366986705,
        "timestamp": "2025-12-21T09:37:23.052684+00:00",
        "meta_object_name": "COSMOS 2251 DEB",
        "meta_object_id": "1993-036BNH",
        "meta_epoch": "2025-12-21T01:06:47.219040",
        "meta_mean_motion": 14.50547349,
        "meta_eccentricity": 0.002119,
        "meta_inclination": 74.0384,
        "meta_ra_of_asc_node": 106.5272,
        "meta_arg_of_pericenter": 254.0308,
        "meta_mean_anomaly": 105.8518,
        "meta_ephemeris_type": 0,
        "meta_classification_type": "U",
        "meta_norad_cat_id": 37528,
        "meta_element_set_no": 999,
        "meta_rev_at_epoch": 86051,
        "meta_bstar": 0.00031815,
        "meta_mean_motion_dot": 1.222e-05,
        "meta_mean_motion_ddot": 0,
        "tle_line1": "1 37528U 93036BNH 25355.04637985  .00001222  00000+0  31815-3 0  9995",
        "tle_line2": "2 37528  74.0384 106.5272 0021190 254.0308 105.8518 14.50547349860511"
      },
      "geometry": {
        "type": "Point",
        "coordinates": [
          124.48415169885531,
          48.131783520785916
        ]
      }
    },
    {
      "type": "Feature",
      "properties": {
        "norad_id": 37530,
        "name": "COSMOS 2251 DEB",
        "group": "cosmos-2251-debris",
        "lat": -0.5363233154575724,
        "lon": 137.9342404062104,
        "alt_km": 797.2866559183321,
        "timestamp": "2025-12-21T09:37:23.052695+00:00",
        "meta_object_name": "COSMOS 2251 DEB",
        "meta_object_id": "1993-036BNK",
        "meta_epoch": "2025-12-20T04:25:20.724960",
        "meta_mean_motion": 14.34512323,
        "meta_eccentricity": 0.0026208,
        "meta_inclination": 74.0363,
        "meta_ra_of_asc_node": 320.008,
        "meta_arg_of_pericenter": 20.0363,
        "meta_mean_anomaly": 359.5359,
        "meta_ephemeris_type": 0,
        "meta_classification_type": "U",
        "meta_norad_cat_id": 37530,
        "meta_element_set_no": 999,
        "meta_rev_at_epoch": 85339,
        "meta_bstar": 0.00016497605,
        "meta_mean_motion_dot": 4.41e-06,
        "meta_mean_motion_ddot": 0,
        "tle_line1": "1 37530U 93036BNK 25354.18426765  .00000441  00000+0  16498-3 0  9996",
        "tle_line2": "2 37530  74.0363 320.0080 0026208  20.0363 359.5359 14.34512323853393"
      },
      "geometry": {
        "type": "Point",
        "coordinates": [
          137.9342404062104,
          -0.5363233154575724
        ]
      }
    },
    {
      "type": "Feature",
      "properties": {
        "norad_id": 37532,
        "name": "COSMOS 2251 DEB",
        "group": "cosmos-2251-debris",
        "lat": -25.61756169050822,
        "lon": 27.55478212534514,
        "alt_km": 756.1368147035928,
        "timestamp": "2025-12-21T09:37:23.052705+00:00",
        "meta_object_name": "COSMOS 2251 DEB",
        "meta_object_id": "1993-036BNM",
        "meta_epoch": "2025-12-14T09:22:45.259968",
        "meta_mean_motion": 14.42410404,
        "meta_eccentricity": 0.00160101,
        "meta_inclination": 74.0496,
        "meta_ra_of_asc_node": 212.6604,
        "meta_arg_of_pericenter": 313.2255,
        "meta_mean_anomaly": 226.6563,
        "meta_ephemeris_type": 0,
        "meta_classification_type": "U",
        "meta_norad_cat_id": 37532,
        "meta_element_set_no": 999,
        "meta_rev_at_epoch": 84939,
        "meta_bstar": 0.00027461522,
        "meta_mean_motion_dot": 8.83e-06,
        "meta_mean_motion_ddot": 0,
        "tle_line1": "1 37532U 93036BNM 25348.39080162  .00000883  00000+0  27462-3 0  9994",
        "tle_line2": "2 37532  74.0496 212.6604 0016010 313.2255 226.6563 14.42410404849399"
      },
      "geometry": {
        "type": "Point",
        "coordinates": [
          27.55478212534514,
          -25.61756169050822
        ]
      }
    }
  ]
}